{
  "type": "FeatureCollection",
  "name": "story-puzzle-app-store-listing",
  "features": [
    {
      "type": "Feature",
      "geometry": null,
      "properties": {
        "locale": "zh-Hans",
        "market": "CN",
        "app_name": "故事拼图",
        "subtitle": "拼完整画面，读懂童话故事",
        "promotional_text": "把童话拆成一幅幅绘本拼图。孩子在拼完整画面的过程中观察细节、理解情节、推进故事，让拼图变成一次温暖的亲子共读体验。",
        "tagline": "拼出画面，也拼出故事。",
        "description": "故事拼图是一款为儿童和家庭设计的绘本拼图 App。\n\n在这里，孩子不是只完成一张孤立的拼图，而是一步一步拼出一个完整故事。每个童话都会被拆分为多个关键画面：出发、遇见、选择、解决、团圆。孩子完成一幕，故事就向前推进一步，直到完整读懂整个故事。\n\n【为什么适合孩子】\n\n孩子在拼图时需要观察颜色、角色、物体和背景关系，也要通过边缘、纹理和画面内容判断碎片位置。这个过程能帮助孩子练习图像分析、空间推理、专注力和耐心。\n\n每一幕完成后，画面会回到完整状态，孩子可以再次观察故事里发生了什么。家长也可以借此引导孩子复述：谁在画面里？角色准备去哪里？下一幕可能会发生什么？\n\n【内置经典童话】\n\n当前版本内置 10 个经典童话故事：\n\n小红帽、三只小猪、灰姑娘、白雪公主、睡美人、糖果屋、丑小鸭、小美人鱼、穿靴子的猫、杰克与豆茎。\n\n每个故事包含 5-6 幕绘本画面，适合孩子分段完成，也适合家庭睡前或碎片时间一起体验。\n\n【主要功能】\n\n- 故事式拼图：完成一幕，推进一页故事。\n- 绘本画面：温暖明亮、主体清晰、适合儿童观察。\n- 连续难度：碎片数量可在 10-300 片之间调节。\n- 双重操作：支持点击选择，也支持拖拽放置。\n- 参考提示：可显示淡化原图，帮助孩子观察画面结构。\n- 完成反馈：每幕完成后有庆祝与下一幕入口。\n- 多语言界面：支持简体中文、繁体中文、英文和日文。\n\n【适合这些场景】\n\n- 家庭亲子共读\n- 睡前安静互动\n- 儿童独立观察练习\n- 幼儿园或课堂故事活动\n- 喜欢童话、绘本和拼图的孩子\n\n故事拼图希望把“玩拼图”和“读故事”结合起来。孩子在动手完成画面的同时，也在学习观察、理解和表达。\n\n拼出画面，也拼出故事。",
        "keywords": "儿童拼图,故事拼图,童话,绘本,亲子,益智,观察力,专注力,幼儿,儿童游戏,空间认知,小红帽,三只小猪",
        "age_rating_suggestion": "4+",
        "primary_category": "Games / Puzzle",
        "secondary_category": "Education",
        "screenshot_order": [
          "首页：展示绘本画面、故事介绍和难度选择",
          "拼图页：展示参考图、碎片列表、点击或拖拽操作",
          "完成页：展示完成庆祝与继续下一幕",
          "故事库：展示 10 个内置童话故事"
        ],
        "review_notes": [
          "正式发布前补齐隐私政策、儿童个人信息保护说明、SDK 清单和监护人同意路径。",
          "如果启用第三方统计 SDK，需要确保用户同意前不初始化、不采集、不上报。",
          "当前商店文案不宣传 AI 生成功能，因为用户可见入口已隐藏。",
          "不使用医疗化或绝对化承诺。"
        ]
      }
    }
  ]
}
